start=new Date('2022-12-09T00:00:00.000Z').valueOf();
sats=[{"CENTER_NAME":"EARTH","INCLINATION":"53.0554","SEMIMAJOR_AXIS":"6925.328","COUNTRY_CODE":"US","PERIOD":"95.592","RA_OF_ASC_NODE":"326.3942","MEAN_ELEMENT_THEORY":"SGP4","PERIAPSIS":"545.908","MEAN_ANOMALY":"306.0453","EPOCH":"2022-12-08T10:34:49.228320","EPHEMERIS_TYPE":"0","LAUNCH_DATE":"2020-06-04","NORAD_CAT_ID":"45703","OBJECT_TYPE":"PAYLOAD","REF_FRAME":"TEME","MEAN_MOTION_DOT":"0.00002288","GP_ID":"219782868","ECCENTRICITY":"0.00018550","ELEMENT_SET_NO":"999","OBJECT_NAME":"STARLINK-1407","FILE":"3684783","SITE":"AFETR","OBJECT_ID":"2020-035AY","MEAN_MOTION_DDOT":"0.0000000000000","ARG_OF_PERICENTER":"54.0708","APOAPSIS":"548.478","TIME_SYSTEM":"UTC","BSTAR":"0.00017244000000","TLE_LINE2":"2 45703  53.0554 326.3942 0001855  54.0708 306.0453 15.06406712139797","RCS_SIZE":"LARGE","TLE_LINE1":"1 45703U 20035AY  22342.44084755  .00002288  00000-0  17244-3 0  9990","REV_AT_EPOCH":"13979","CLASSIFICATION_TYPE":"U","DECAY_DATE":null,"MEAN_MOTION":"15.06406712"},{"MEAN_ELEMENT_THEORY":"SGP4","RA_OF_ASC_NODE":"355.0868","PERIOD":"95.592","SEMIMAJOR_AXIS":"6925.341","COUNTRY_CODE":"US","INCLINATION":"53.0562","CENTER_NAME":"EARTH","OBJECT_TYPE":"PAYLOAD","NORAD_CAT_ID":"45704","LAUNCH_DATE":"2020-06-04","EPHEMERIS_TYPE":"0","PERIAPSIS":"546.211","EPOCH":"2022-12-08T17:34:06.297312","MEAN_ANOMALY":"297.6226","MEAN_MOTION_DOT":"0.00000767","REF_FRAME":"TEME","GP_ID":"219806100","FILE":"3684925","OBJECT_NAME":"STARLINK-1409","ELEMENT_SET_NO":"999","ECCENTRICITY":"0.00014360","MEAN_MOTION_DDOT":"0.0000000000000","OBJECT_ID":"2020-035AZ","SITE":"AFETR","TLE_LINE2":"2 45704  53.0562 355.0868 0001436  62.4908 297.6226 15.06402537139832","RCS_SIZE":"LARGE","BSTAR":"0.00007035100000","TIME_SYSTEM":"UTC","APOAPSIS":"548.200","ARG_OF_PERICENTER":"62.4908","DECAY_DATE":null,"MEAN_MOTION":"15.06402537","CLASSIFICATION_TYPE":"U","REV_AT_EPOCH":"13983","TLE_LINE1":"1 45704U 20035AZ  22342.73201733  .00000767  00000-0  70351-4 0  9999"},{"SITE":"AFETR","MEAN_MOTION_DDOT":"0.0000000000000","OBJECT_ID":"2020-035BA","OBJECT_NAME":"STARLINK-1410","ELEMENT_SET_NO":"999","ECCENTRICITY":"0.00018700","FILE":"3684925","TLE_LINE1":"1 45705U 20035BA  22342.75875554  .00003002  00000-0  22030-3 0  9995","MEAN_MOTION":"15.06406528","DECAY_DATE":null,"CLASSIFICATION_TYPE":"U","REV_AT_EPOCH":"13982","TIME_SYSTEM":"UTC","APOAPSIS":"548.489","ARG_OF_PERICENTER":"56.7648","RCS_SIZE":"LARGE","TLE_LINE2":"2 45705  53.0572 354.9496 0001870  56.7648 303.3520 15.06406528139823","BSTAR":"0.00022030000000","EPOCH":"2022-12-08T18:12:36.478656","PERIAPSIS":"545.899","MEAN_ANOMALY":"303.3520","OBJECT_TYPE":"PAYLOAD","NORAD_CAT_ID":"45705","LAUNCH_DATE":"2020-06-04","EPHEMERIS_TYPE":"0","CENTER_NAME":"EARTH","MEAN_ELEMENT_THEORY":"SGP4","RA_OF_ASC_NODE":"354.9496","PERIOD":"95.592","COUNTRY_CODE":"US","SEMIMAJOR_AXIS":"6925.329","INCLINATION":"53.0572","GP_ID":"219804849","REF_FRAME":"TEME","MEAN_MOTION_DOT":"0.00003002"},{"EPHEMERIS_TYPE":"0","LAUNCH_DATE":"2020-06-04","NORAD_CAT_ID":"45706","OBJECT_TYPE":"PAYLOAD","PERIAPSIS":"546.093","EPOCH":"2022-12-08T16:25:08.631552","MEAN_ANOMALY":"293.0001","INCLINATION":"53.0563","COUNTRY_CODE":"US","SEMIMAJOR_AXIS":"6925.343","RA_OF_ASC_NODE":"325.2891","PERIOD":"95.592","MEAN_ELEMENT_THEORY":"SGP4","CENTER_NAME":"EARTH","GP_ID":"219805600","MEAN_MOTION_DOT":"0.00001910","REF_FRAME":"TEME","OBJECT_ID":"2020-035BB","MEAN_MOTION_DDOT":"0.0000000000000","SITE":"AFETR","FILE":"3684925","ECCENTRICITY":"0.00016090","ELEMENT_SET_NO":"999","OBJECT_NAME":"STARLINK-1411","REV_AT_EPOCH":"14023","DECAY_DATE":null,"CLASSIFICATION_TYPE":"U","MEAN_MOTION":"15.06401910","TLE_LINE1":"1 45706U 20035BB  22342.68412768  .00001910  00000-0  14707-3 0  9990","BSTAR":"0.00014707000000","TLE_LINE2":"2 45706  53.0563 325.2891 0001609  67.1158 293.0001 15.06401910140232","RCS_SIZE":"LARGE","ARG_OF_PERICENTER":"67.1158","APOAPSIS":"548.322","TIME_SYSTEM":"UTC"},{"GP_ID":"219805850","MEAN_MOTION_DOT":"0.00004134","REF_FRAME":"TEME","LAUNCH_DATE":"2020-06-04","EPHEMERIS_TYPE":"0","OBJECT_TYPE":"PAYLOAD","NORAD_CAT_ID":"45707","MEAN_ANOMALY":"297.9136","PERIAPSIS":"545.932","EPOCH":"2022-12-08T16:19:50.423808","SEMIMAJOR_AXIS":"6925.370","COUNTRY_CODE":"US","INCLINATION":"53.0554","MEAN_ELEMENT_THEORY":"SGP4","PERIOD":"95.593","RA_OF_ASC_NODE":"325.3262","CENTER_NAME":"EARTH","REV_AT_EPOCH":"14024","DECAY_DATE":null,"MEAN_MOTION":"15.06392907","CLASSIFICATION_TYPE":"U","TLE_LINE1":"1 45707U 20035BC  22342.68044472  .00004134  00000-0  29630-3 0  9996","BSTAR":"0.00029630000000","RCS_SIZE":"LARGE","TLE_LINE2":"2 45707  53.0554 325.3262 0001882  62.2044 297.9136 15.06392907140247","APOAPSIS":"548.539","ARG_OF_PERICENTER":"62.2044","TIME_SYSTEM":"UTC","OBJECT_ID":"2020-035BC","MEAN_MOTION_DDOT":"0.0000000000000","SITE":"AFETR","FILE":"3684925","ELEMENT_SET_NO":"999","ECCENTRICITY":"0.00018820","OBJECT_NAME":"STARLINK-1412"},{"PERIAPSIS":"545.956","EPOCH":"2022-12-08T15:42:41.887872","MEAN_ANOMALY":"290.1031","OBJECT_TYPE":"PAYLOAD","NORAD_CAT_ID":"45708","LAUNCH_DATE":"2020-06-04","EPHEMERIS_TYPE":"0","CENTER_NAME":"EARTH","MEAN_ELEMENT_THEORY":"SGP4","RA_OF_ASC_NODE":"325.4320","PERIOD":"95.592","SEMIMAJOR_AXIS":"6925.327","COUNTRY_CODE":"US","INCLINATION":"53.0547","GP_ID":"219806600","REF_FRAME":"TEME","MEAN_MOTION_DOT":"0.00005404","SITE":"AFETR","MEAN_MOTION_DDOT":"0.0000000000000","OBJECT_ID":"2020-035BD","OBJECT_NAME":"STARLINK-1418","ELEMENT_SET_NO":"999","ECCENTRICITY":"0.00017850","FILE":"3684925","TLE_LINE1":"1 45708U 20035BD  22342.65465148  .00005404  00000-0  38132-3 0  9999","MEAN_MOTION":"15.06406963","DECAY_DATE":null,"CLASSIFICATION_TYPE":"U","REV_AT_EPOCH":"14024","TIME_SYSTEM":"UTC","APOAPSIS":"548.428","ARG_OF_PERICENTER":"70.0150","RCS_SIZE":"LARGE","TLE_LINE2":"2 45708  53.0547 325.4320 0001785  70.0150 290.1031 15.06406963140240","BSTAR":"0.00038132000000"},{"OBJECT_NAME":"STARLINK-1421","ECCENTRICITY":"0.00008950","ELEMENT_SET_NO":"999","FILE":"3684925","SITE":"AFETR","MEAN_MOTION_DDOT":"0.0000000000000","OBJECT_ID":"2020-035BE","TIME_SYSTEM":"UTC","ARG_OF_PERICENTER":"45.7270","APOAPSIS":"547.817","TLE_LINE2":"2 45709  53.0562 325.2780 0000895  45.7270 314.3792 15.06405259140205","RCS_SIZE":"LARGE","BSTAR":"0.00008630000000","TLE_LINE1":"1 45709U 20035BE  22342.69149222  .00001005  00000-0  86300-4 0  9990","CLASSIFICATION_TYPE":"U","DECAY_DATE":null,"MEAN_MOTION":"15.06405259","REV_AT_EPOCH":"14020","CENTER_NAME":"EARTH","RA_OF_ASC_NODE":"325.2780","PERIOD":"95.592","MEAN_ELEMENT_THEORY":"SGP4","INCLINATION":"53.0562","COUNTRY_CODE":"US","SEMIMAJOR_AXIS":"6925.332","MEAN_ANOMALY":"314.3792","PERIAPSIS":"546.578","EPOCH":"2022-12-08T16:35:44.927808","OBJECT_TYPE":"PAYLOAD","NORAD_CAT_ID":"45709","EPHEMERIS_TYPE":"0","LAUNCH_DATE":"2020-06-04","REF_FRAME":"TEME","MEAN_MOTION_DOT":"0.00001005","GP_ID":"219805350"},{"OBJECT_TYPE":"PAYLOAD","NORAD_CAT_ID":"45710","EPHEMERIS_TYPE":"0","LAUNCH_DATE":"2020-06-04","EPOCH":"2022-12-08T16:30:26.020224","PERIAPSIS":"545.962","MEAN_ANOMALY":"303.0218","RA_OF_ASC_NODE":"325.2936","PERIOD":"95.591","MEAN_ELEMENT_THEORY":"SGP4","INCLINATION":"53.0561","COUNTRY_CODE":"US","SEMIMAJOR_AXIS":"6925.308","CENTER_NAME":"EARTH","GP_ID":"219805100","MEAN_MOTION_DOT":"0.00002591","REF_FRAME":"TEME","MEAN_MOTION_DDOT":"0.0000000000000","OBJECT_ID":"2020-035BF","SITE":"AFETR","FILE":"3684925","OBJECT_NAME":"STARLINK-1423","ECCENTRICITY":"0.00017490","ELEMENT_SET_NO":"999","DECAY_DATE":null,"MEAN_MOTION":"15.06413111","CLASSIFICATION_TYPE":"U","REV_AT_EPOCH":"14024","TLE_LINE1":"1 45710U 20035BF  22342.68780116  .00002591  00000-0  19272-3 0  9998","TLE_LINE2":"2 45710  53.0561 325.2936 0001749  57.0939 303.0218 15.06413111140244","RCS_SIZE":"LARGE","BSTAR":"0.00019272000000","TIME_SYSTEM":"UTC","ARG_OF_PERICENTER":"57.0939","APOAPSIS":"548.385"},{"OBJECT_ID":"2020-035BG","MEAN_MOTION_DDOT":"0.0000000000000","SITE":"AFETR","FILE":"3684614","ELEMENT_SET_NO":"999","ECCENTRICITY":"0.00010330","OBJECT_NAME":"STARLINK-1433","REV_AT_EPOCH":"14018","CLASSIFICATION_TYPE":"U","DECAY_DATE":null,"MEAN_MOTION":"15.06439587","TLE_LINE1":"1 45711U 20035BG  22342.33763100  .00008555  00000-0  59190-3 0  9994","BSTAR":"0.00059190000000","RCS_SIZE":"LARGE","TLE_LINE2":"2 45711  53.0566 326.8523 0001033  66.4803 293.6294 15.06439587140185","APOAPSIS":"547.808","ARG_OF_PERICENTER":"66.4803","TIME_SYSTEM":"UTC","LAUNCH_DATE":"2020-06-04","EPHEMERIS_TYPE":"0","OBJECT_TYPE":"PAYLOAD","NORAD_CAT_ID":"45711","PERIAPSIS":"546.377","EPOCH":"2022-12-08T08:06:11.318400","MEAN_ANOMALY":"293.6294","COUNTRY_CODE":"US","SEMIMAJOR_AXIS":"6925.227","INCLINATION":"53.0566","MEAN_ELEMENT_THEORY":"SGP4","RA_OF_ASC_NODE":"326.8523","PERIOD":"95.590","CENTER_NAME":"EARTH","GP_ID":"219771667","MEAN_MOTION_DOT":"0.00008555","REF_FRAME":"TEME"},{"ECCENTRICITY":"0.00014320","ELEMENT_SET_NO":"999","OBJECT_NAME":"STARLINK-1434","FILE":"3684925","SITE":"AFETR","OBJECT_ID":"2020-035BH","MEAN_MOTION_DDOT":"0.0000000000000","ARG_OF_PERICENTER":"63.4530","APOAPSIS":"548.193","TIME_SYSTEM":"UTC","BSTAR":"0.00017292000000","RCS_SIZE":"LARGE","TLE_LINE2":"2 45712  53.0541 325.3742 0001432  63.4530 296.6605 15.06403848140240","TLE_LINE1":"1 45712U 20035BH  22342.66569595  .00002295  00000-0  17292-3 0  9995","REV_AT_EPOCH":"14024","MEAN_MOTION":"15.06403848","DECAY_DATE":null,"CLASSIFICATION_TYPE":"U","CENTER_NAME":"EARTH","INCLINATION":"53.0541","SEMIMAJOR_AXIS":"6925.337","COUNTRY_CODE":"US","RA_OF_ASC_NODE":"325.3742","PERIOD":"95.592","MEAN_ELEMENT_THEORY":"SGP4","PERIAPSIS":"546.210","MEAN_ANOMALY":"296.6605","EPOCH":"2022-12-08T15:58:36.130080","EPHEMERIS_TYPE":"0","LAUNCH_DATE":"2020-06-04","OBJECT_TYPE":"PAYLOAD","NORAD_CAT_ID":"45712","REF_FRAME":"TEME","MEAN_MOTION_DOT":"0.00002295","GP_ID":"219806101"}];
